0 THORAD AGENA D DEB
1 04145U 69082P   13281.83514624 -.00000036  00000-0  10294-4 0   437
2 04145 070.0611 200.1621 0059951 010.0310 045.8076 14.10827489264339
0 THORAD AGENA D DEB
1 04145U 69082P   13283.20323162 -.00000071  00000-0 -90070-5 0   447
2 04145 070.0610 197.1732 0060028 008.2221 154.2515 14.10828391264520
0 THORAD AGENA D DEB
1 04145U 69082P   13286.16313810 -.00000145  00000-0 -49390-4 0   466
2 04145 070.0607 190.7069 0060168 004.3696 067.4320 14.10828771264943
0 THORAD AGENA D DEB
1 04145U 69082P   13287.17145532 -.00000153  00000-0 -53906-4 0   470
2 04145 070.0605 188.5041 0060208 003.0516 148.6193 14.10828774265087
0 THORAD AGENA D DEB
1 04145U 69082P   13288.85604109 -.00000167  00000-0 -61558-4 0   484
2 04145 070.0600 184.8238 0060268 000.8305 064.5564 14.10829133265321
0 THORAD AGENA D DEB
1 04145U 69082P   13290.14922704 -.00000207  00000-0 -83316-4 0   495
2 04145 070.0596 181.9987 0060323 359.1412 152.5758 14.10829078265506
0 THORAD AGENA D DEB
1 04145U 69082P   13291.47754735 -.00000234  00000-0 -98358-4 0   503
2 04145 070.0592 179.0965 0060390 357.3938 059.0528 14.10828981265691
0 THORAD AGENA D DEB
1 04145U 69082P   13292.82683392 -.00000254  00000-0 -10943-3 0   519
2 04145 070.0589 176.1485 0060440 355.6561 071.9786 14.10828668265883
0 THORAD AGENA D DEB
1 04145U 69082P   13294.12161383 -.00000271  00000-0 -11857-3 0   520
2 04145 070.0586 173.3195 0060512 353.9576 168.0990 14.10828121266064
0 THORAD AGENA D DEB
1 04145U 69082P   13295.18131979 -.00000268  00000-0 -11709-3 0   538
2 04145 070.0584 171.0041 0060568 352.5865 150.2705 14.10827582266218
